WORLDVIEW-1 (WV-1)      
1 32060U 07041A   26196.91141576  .00003198  00000+0  13275-3 0  9992
2 32060  97.3907 316.2522 0001593 202.9820 157.1347 15.24563308 47253
WORLDVIEW-2 (WV-2)      
1 35946U 09055A   26196.90276241  .00000042  00000+0  28367-4 0  9996
2 35946  98.4756 269.9614 0005342 128.1106 232.0564 14.37907022879773
YAOGAN-10               
1 36834U 10038A   26196.98517216  .00001280  00000+0  15482-3 0  9992
2 36834  97.8967 220.1597 0001686  82.8359   2.4352 14.85432808861480
VNREDSAT 1              
1 39160U 13021B   26196.98262041  .00000117  00000+0  30350-4 0  9995
2 39160  97.9068 249.2914 0001594  79.7647 280.3737 14.64883674704507
WORLDVIEW-3 (WV-3)      
1 40115U 14048A   26196.87094660  .00000388  00000+0  51721-4 0  9990
2 40115  97.8556 271.3068 0001352 154.8862 205.2419 14.85064838646168
YAOGAN-21               
1 40143U 14053A   26196.93823438  .00003244  00000+0  12585-3 0  9995
2 40143  97.1455 235.9442 0007790   5.9212 354.2118 15.26764273659340
UMBRA-09                
1 60541U 24149CB  26196.79877919  .00011437  00000+0  55166-3 0  9998
2 60541  97.6974 284.5108 0002075 201.7624 158.3522 15.18864080105063
UMBRA-10                
1 60547U 24149CH  26196.79832415  .00009740  00000+0  47045-3 0  9997
2 60547  97.6981 284.5401 0001674 166.3022 193.8257 15.18861857105074
UMBRA-11                
1 66748U 25276CL  26196.75697041  .00013379  00000+0  49516-3 0  9996
2 66748  97.4190 271.2303 0002752 184.5674 175.5541 15.27795055 34856
UMBRA-12                
1 67371U 26004J   26196.92781881  .00002227  00000+0  23932-3 0  9998
2 67371  97.8022 195.3040 0007353  51.0460 309.1412 14.89535405 27586
