{
 "generated_at": "2026-07-16T07:22:15Z",
 "sources": [
  {
   "name": "CelesTrak",
   "url": "https://celestrak.org/NORAD/elements/",
   "license": "frei verfügbar; Attribution. Ursprünglich USSPACECOM/Space-Track."
  },
  {
   "name": "GCAT (J. McDowell, planet4589.org)",
   "url": "https://planet4589.org/space/gcat/",
   "license": "CC-BY 4.0"
  }
 ],
 "satellites": [
  {
   "norad": 60541,
   "name": "UMBRA-09",
   "intl": "2024-149CB",
   "group": "sar",
   "gcat": {
    "class": "B",
    "category": "IMG-R",
    "owner": "UMBRA",
    "state": "US"
   },
   "omm": {
    "OBJECT_NAME": "UMBRA-09",
    "OBJECT_ID": "2024-149CB",
    "EPOCH": "2026-07-15T19:10:14.522016",
    "MEAN_MOTION": 15.1886408,
    "ECCENTRICITY": 0.00020754,
    "INCLINATION": 97.6974,
    "RA_OF_ASC_NODE": 284.5108,
    "ARG_OF_PERICENTER": 201.7624,
    "MEAN_ANOMALY": 158.3522,
    "EPHEMERIS_TYPE": 0,
    "CLASSIFICATION_TYPE": "U",
    "NORAD_CAT_ID": 60541,
    "ELEMENT_SET_NO": 999,
    "REV_AT_EPOCH": 10506,
    "BSTAR": 0.00055165805,
    "MEAN_MOTION_DOT": 0.00011437,
    "MEAN_MOTION_DDOT": 0
   }
  },
  {
   "norad": 60547,
   "name": "UMBRA-10",
   "intl": "2024-149CH",
   "group": "sar",
   "gcat": {
    "class": "B",
    "category": "IMG-R",
    "owner": "UMBRA",
    "state": "US"
   },
   "omm": {
    "OBJECT_NAME": "UMBRA-10",
    "OBJECT_ID": "2024-149CH",
    "EPOCH": "2026-07-15T19:09:35.206560",
    "MEAN_MOTION": 15.18861857,
    "ECCENTRICITY": 0.0001674,
    "INCLINATION": 97.6981,
    "RA_OF_ASC_NODE": 284.5401,
    "ARG_OF_PERICENTER": 166.3022,
    "MEAN_ANOMALY": 193.8257,
    "EPHEMERIS_TYPE": 0,
    "CLASSIFICATION_TYPE": "U",
    "NORAD_CAT_ID": 60547,
    "ELEMENT_SET_NO": 999,
    "REV_AT_EPOCH": 10507,
    "BSTAR": 0.00047044714,
    "MEAN_MOTION_DOT": 0.0000974,
    "MEAN_MOTION_DDOT": 0
   }
  },
  {
   "norad": 66748,
   "name": "UMBRA-11",
   "intl": "2025-276CL",
   "group": "sar",
   "gcat": {
    "class": "B",
    "category": "IMG-R",
    "owner": "UMBRA",
    "state": "US"
   },
   "omm": {
    "OBJECT_NAME": "UMBRA-11",
    "OBJECT_ID": "2025-276CL",
    "EPOCH": "2026-07-15T18:10:02.243424",
    "MEAN_MOTION": 15.27795055,
    "ECCENTRICITY": 0.00027529,
    "INCLINATION": 97.419,
    "RA_OF_ASC_NODE": 271.2303,
    "ARG_OF_PERICENTER": 184.5674,
    "MEAN_ANOMALY": 175.5541,
    "EPHEMERIS_TYPE": 0,
    "CLASSIFICATION_TYPE": "U",
    "NORAD_CAT_ID": 66748,
    "ELEMENT_SET_NO": 999,
    "REV_AT_EPOCH": 3485,
    "BSTAR": 0.00049515662,
    "MEAN_MOTION_DOT": 0.00013379,
    "MEAN_MOTION_DDOT": 0
   }
  },
  {
   "norad": 67371,
   "name": "UMBRA-12",
   "intl": "2026-004J",
   "group": "sar",
   "gcat": {
    "class": "B",
    "category": "IMG-R",
    "owner": "UMBRA",
    "state": "US"
   },
   "omm": {
    "OBJECT_NAME": "UMBRA-12",
    "OBJECT_ID": "2026-004J",
    "EPOCH": "2026-07-15T22:16:03.545184",
    "MEAN_MOTION": 14.89535405,
    "ECCENTRICITY": 0.00073535,
    "INCLINATION": 97.8022,
    "RA_OF_ASC_NODE": 195.304,
    "ARG_OF_PERICENTER": 51.046,
    "MEAN_ANOMALY": 309.1412,
    "EPHEMERIS_TYPE": 0,
    "CLASSIFICATION_TYPE": "U",
    "NORAD_CAT_ID": 67371,
    "ELEMENT_SET_NO": 999,
    "REV_AT_EPOCH": 2758,
    "BSTAR": 0.00023932305,
    "MEAN_MOTION_DOT": 0.00002227,
    "MEAN_MOTION_DDOT": 0
   }
  },
  {
   "norad": 39160,
   "name": "VNREDSAT 1",
   "intl": "2013-021B",
   "group": "resource",
   "gcat": {
    "class": "C",
    "category": "IMG",
    "owner": "VAST",
    "state": "VN"
   },
   "omm": {
    "OBJECT_NAME": "VNREDSAT 1",
    "OBJECT_ID": "2013-021B",
    "EPOCH": "2026-07-15T23:34:58.403424",
    "MEAN_MOTION": 14.64883674,
    "ECCENTRICITY": 0.00015948,
    "INCLINATION": 97.9068,
    "RA_OF_ASC_NODE": 249.2914,
    "ARG_OF_PERICENTER": 79.7647,
    "MEAN_ANOMALY": 280.3737,
    "EPHEMERIS_TYPE": 0,
    "CLASSIFICATION_TYPE": "U",
    "NORAD_CAT_ID": 39160,
    "ELEMENT_SET_NO": 999,
    "REV_AT_EPOCH": 70450,
    "BSTAR": 0.000030349517,
    "MEAN_MOTION_DOT": 0.00000117,
    "MEAN_MOTION_DDOT": 0
   }
  },
  {
   "norad": 32060,
   "name": "WORLDVIEW-1 (WV-1)",
   "intl": "2007-041A",
   "group": "resource",
   "gcat": {
    "class": "B",
    "category": "IMG",
    "owner": "DGLO",
    "state": "US"
   },
   "omm": {
    "OBJECT_NAME": "WORLDVIEW-1 (WV-1)",
    "OBJECT_ID": "2007-041A",
    "EPOCH": "2026-07-15T21:52:26.321664",
    "MEAN_MOTION": 15.24563308,
    "ECCENTRICITY": 0.00015937,
    "INCLINATION": 97.3907,
    "RA_OF_ASC_NODE": 316.2522,
    "ARG_OF_PERICENTER": 202.982,
    "MEAN_ANOMALY": 157.1347,
    "EPHEMERIS_TYPE": 0,
    "CLASSIFICATION_TYPE": "U",
    "NORAD_CAT_ID": 32060,
    "ELEMENT_SET_NO": 999,
    "REV_AT_EPOCH": 4725,
    "BSTAR": 0.0001327535,
    "MEAN_MOTION_DOT": 0.00003198,
    "MEAN_MOTION_DDOT": 0
   }
  },
  {
   "norad": 35946,
   "name": "WORLDVIEW-2 (WV-2)",
   "intl": "2009-055A",
   "group": "resource",
   "gcat": {
    "class": "B",
    "category": "IMG",
    "owner": "DGLO",
    "state": "US"
   },
   "omm": {
    "OBJECT_NAME": "WORLDVIEW-2 (WV-2)",
    "OBJECT_ID": "2009-055A",
    "EPOCH": "2026-07-15T21:39:58.672224",
    "MEAN_MOTION": 14.37907022,
    "ECCENTRICITY": 0.00053424,
    "INCLINATION": 98.4756,
    "RA_OF_ASC_NODE": 269.9614,
    "ARG_OF_PERICENTER": 128.1106,
    "MEAN_ANOMALY": 232.0564,
    "EPHEMERIS_TYPE": 0,
    "CLASSIFICATION_TYPE": "U",
    "NORAD_CAT_ID": 35946,
    "ELEMENT_SET_NO": 999,
    "REV_AT_EPOCH": 87977,
    "BSTAR": 0.000028366674,
    "MEAN_MOTION_DOT": 4.2e-7,
    "MEAN_MOTION_DDOT": 0
   }
  },
  {
   "norad": 40115,
   "name": "WORLDVIEW-3 (WV-3)",
   "intl": "2014-048A",
   "group": "resource",
   "gcat": {
    "class": "B",
    "category": "IMG",
    "owner": "DGLO",
    "state": "US"
   },
   "omm": {
    "OBJECT_NAME": "WORLDVIEW-3 (WV-3)",
    "OBJECT_ID": "2014-048A",
    "EPOCH": "2026-07-15T20:54:09.786240",
    "MEAN_MOTION": 14.85064838,
    "ECCENTRICITY": 0.00013524,
    "INCLINATION": 97.8556,
    "RA_OF_ASC_NODE": 271.3068,
    "ARG_OF_PERICENTER": 154.8862,
    "MEAN_ANOMALY": 205.2419,
    "EPHEMERIS_TYPE": 0,
    "CLASSIFICATION_TYPE": "U",
    "NORAD_CAT_ID": 40115,
    "ELEMENT_SET_NO": 999,
    "REV_AT_EPOCH": 64616,
    "BSTAR": 0.000051720941,
    "MEAN_MOTION_DOT": 0.00000388,
    "MEAN_MOTION_DDOT": 0
   }
  },
  {
   "norad": 36834,
   "name": "YAOGAN-10",
   "intl": "2010-038A",
   "group": "resource",
   "gcat": {
    "class": null,
    "category": null,
    "owner": null,
    "state": null
   },
   "omm": {
    "OBJECT_NAME": "YAOGAN-10",
    "OBJECT_ID": "2010-038A",
    "EPOCH": "2026-07-15T23:38:38.874624",
    "MEAN_MOTION": 14.85432808,
    "ECCENTRICITY": 0.00016866,
    "INCLINATION": 97.8967,
    "RA_OF_ASC_NODE": 220.1597,
    "ARG_OF_PERICENTER": 82.8359,
    "MEAN_ANOMALY": 2.4352,
    "EPHEMERIS_TYPE": 0,
    "CLASSIFICATION_TYPE": "U",
    "NORAD_CAT_ID": 36834,
    "ELEMENT_SET_NO": 999,
    "REV_AT_EPOCH": 86148,
    "BSTAR": 0.00015482127,
    "MEAN_MOTION_DOT": 0.0000128,
    "MEAN_MOTION_DDOT": 0
   }
  },
  {
   "norad": 40143,
   "name": "YAOGAN-21",
   "intl": "2014-053A",
   "group": "resource",
   "gcat": {
    "class": "D",
    "category": "IMG",
    "owner": "ZZB",
    "state": "CN"
   },
   "omm": {
    "OBJECT_NAME": "YAOGAN-21",
    "OBJECT_ID": "2014-053A",
    "EPOCH": "2026-07-15T22:31:03.450432",
    "MEAN_MOTION": 15.26764273,
    "ECCENTRICITY": 0.00077901,
    "INCLINATION": 97.1455,
    "RA_OF_ASC_NODE": 235.9442,
    "ARG_OF_PERICENTER": 5.9212,
    "MEAN_ANOMALY": 354.2118,
    "EPHEMERIS_TYPE": 0,
    "CLASSIFICATION_TYPE": "U",
    "NORAD_CAT_ID": 40143,
    "ELEMENT_SET_NO": 999,
    "REV_AT_EPOCH": 65934,
    "BSTAR": 0.00012584613,
    "MEAN_MOTION_DOT": 0.00003244,
    "MEAN_MOTION_DDOT": 0
   }
  }
 ]
}
